[{"OBJECT_NAME":"STARLINK-35512","OBJECT_ID":"2025-253M","EPOCH":"2026-03-09T10:29:14.706528","MEAN_MOTION":15.27582162,"ECCENTRICITY":3.671e-5,"INCLINATION":42.9985,"RA_OF_ASC_NODE":214.1234,"ARG_OF_PERICENTER":188.9051,"MEAN_ANOMALY":171.1794,"EPHEMERIS_TYPE":0,"CLASSIFICATION_TYPE":"U","NORAD_CAT_ID":66330,"ELEMENT_SET_NO":999,"REV_AT_EPOCH":2020,"BSTAR":0.0010683445,"MEAN_MOTION_DOT":0.00029255,"MEAN_MOTION_DDOT":0},{"OBJECT_NAME":"COSMOS 1408 DEB","OBJECT_ID":"1982-092ADS","EPOCH":"2026-03-09T15:14:01.495392","MEAN_MOTION":15.34178134,"ECCENTRICITY":0.0122957,"INCLINATION":82.1939,"RA_OF_ASC_NODE":124.7493,"ARG_OF_PERICENTER":254.6382,"MEAN_ANOMALY":104.1246,"EPHEMERIS_TYPE":0,"CLASSIFICATION_TYPE":"U","NORAD_CAT_ID":50404,"ELEMENT_SET_NO":999,"REV_AT_EPOCH":22516,"BSTAR":0.0029669,"MEAN_MOTION_DOT":0.00127192,"MEAN_MOTION_DDOT":0}]
